{
"type": "FeatureCollection",
"name": "cotas_textos",
"features": [
{"type":"Feature","properties":{"HEIGHT":1.0,"LAYER":"GEO_COTAS","ROTATION":0.214306802815208,"STRING":"11.58","STYLE":"Standard","TEXTSTRING":"11.58","TEXT_SIZE":1.0,"TEXT_ANGLE":12.278875322253766},"geometry":{"type":"Point","coordinates":[-89.4185282,16.4952771,0.0]}},
{"type":"Feature","properties":{"HEIGHT":1.0,"LAYER":"GEO_COTAS","ROTATION":1.5568284224385991,"STRING":"17.9","STYLE":"Standard","TEXTSTRING":"17.9","TEXT_SIZE":1.0,"TEXT_ANGLE":89.199698031741733},"geometry":{"type":"Point","coordinates":[-89.4185917,16.495175,0.0]}},
{"type":"Feature","properties":{"HEIGHT":1.0,"LAYER":"GEO_COTAS","ROTATION":0.21430680283231199,"STRING":"11.58","STYLE":"Standard","TEXTSTRING":"11.58","TEXT_SIZE":1.0,"TEXT_ANGLE":12.278875323233752},"geometry":{"type":"Point","coordinates":[-89.418422,16.4952989,0.0]}},
{"type":"Feature","properties":{"HEIGHT":1.0,"LAYER":"GEO_COTAS","ROTATION":4.7717652268699036,"STRING":"18.98","STYLE":"Standard","TEXTSTRING":"18.98","TEXT_SIZE":1.0,"TEXT_ANGLE":273.40200832693131},"geometry":{"type":"Point","coordinates":[-89.4184792,16.4951912,0.0]}},
{"type":"Feature","properties":{"HEIGHT":1.0,"LAYER":"GEO_COTAS","ROTATION":0.314919551916235,"STRING":"9.47","STYLE":"Standard","TEXTSTRING":"9.47","TEXT_SIZE":1.0,"TEXT_ANGLE":18.043561210951292},"geometry":{"type":"Point","coordinates":[-89.4183085,16.4953264,0.0]}},
{"type":"Feature","properties":{"HEIGHT":1.0,"LAYER":"GEO_COTAS","ROTATION":0.21430680330432,"STRING":"2.11","STYLE":"Standard","TEXTSTRING":"2.11","TEXT_SIZE":1.0,"TEXT_ANGLE":12.278875350277813},"geometry":{"type":"Point","coordinates":[-89.4183593,16.4953117,0.0]}},
{"type":"Feature","properties":{"HEIGHT":1.0,"LAYER":"GEO_COTAS","ROTATION":4.8369225098151203,"STRING":"20.14","STYLE":"Standard","TEXTSTRING":"20.14","TEXT_SIZE":1.0,"TEXT_ANGLE":277.13524564423182},"geometry":{"type":"Point","coordinates":[-89.4183666,16.4952074,0.0]}},
{"type":"Feature","properties":{"HEIGHT":1.0,"LAYER":"GEO_COTAS","ROTATION":0.31491955191564602,"STRING":"11.58","STYLE":"Standard","TEXTSTRING":"11.58","TEXT_SIZE":1.0,"TEXT_ANGLE":18.043561210917535},"geometry":{"type":"Point","coordinates":[-89.4182146,16.4953554,0.0]}},
{"type":"Feature","properties":{"HEIGHT":1.0,"LAYER":"GEO_COTAS","ROTATION":4.8982269384487216,"STRING":"22.34","STYLE":"Standard","TEXTSTRING":"22.34","TEXT_SIZE":1.0,"TEXT_ANGLE":280.64773067039829},"geometry":{"type":"Point","coordinates":[-89.4182551,16.4952279,0.0]}},
{"type":"Feature","properties":{"HEIGHT":1.0,"LAYER":"GEO_COTAS","ROTATION":5.0249421498694158,"STRING":"30.91","STYLE":"Standard","TEXTSTRING":"30.91","TEXT_SIZE":1.0,"TEXT_ANGLE":287.90797748491184},"geometry":{"type":"Point","coordinates":[-89.4179011,16.4953036,0.0]}},
{"type":"Feature","properties":{"HEIGHT":1.0,"LAYER":"GEO_COTAS","ROTATION":0.36001403617106797,"STRING":"11.62","STYLE":"Standard","TEXTSTRING":"11.62","TEXT_SIZE":1.0,"TEXT_ANGLE":20.627284838072335},"geometry":{"type":"Point","coordinates":[-89.4180105,16.4954253,0.0]}},
{"type":"Feature","properties":{"HEIGHT":1.0,"LAYER":"GEO_COTAS","ROTATION":6.2465151380749342,"STRING":"14.16","STYLE":"Standard","TEXTSTRING":"14.16","TEXT_SIZE":1.0,"TEXT_ANGLE":357.89895407627239},"geometry":{"type":"Point","coordinates":[-89.4179886,16.4949251,0.0]}},
{"type":"Feature","properties":{"HEIGHT":1.0,"LAYER":"GEO_COTAS","ROTATION":6.2465151380092081,"STRING":"14.16","STYLE":"Standard","TEXTSTRING":"14.16","TEXT_SIZE":1.0,"TEXT_ANGLE":357.89895407250651},"geometry":{"type":"Point","coordinates":[-89.4181211,16.4949304,0.0]}},
{"type":"Feature","properties":{"HEIGHT":1.0,"LAYER":"GEO_COTAS","ROTATION":4.9584172497336541,"STRING":"23.26","STYLE":"Standard","TEXTSTRING":"23.26","TEXT_SIZE":1.0,"TEXT_ANGLE":284.0963814746035},"geometry":{"type":"Point","coordinates":[-89.4180695,16.4950433,0.0]}},
{"type":"Feature","properties":{"HEIGHT":1.0,"LAYER":"GEO_COTAS","ROTATION":0.11121727183821201,"STRING":"12.77","STYLE":"Standard","TEXTSTRING":"12.77","TEXT_SIZE":1.0,"TEXT_ANGLE":6.3722802852887099},"geometry":{"type":"Point","coordinates":[-89.418167,16.4951474,0.0]}},
{"type":"Feature","properties":{"HEIGHT":1.0,"LAYER":"GEO_COTAS","ROTATION":6.2465151380092081,"STRING":"14.16","STYLE":"Standard","TEXTSTRING":"14.16","TEXT_SIZE":1.0,"TEXT_ANGLE":357.89895407250651},"geometry":{"type":"Point","coordinates":[-89.4182537,16.4949358,0.0]}},
{"type":"Feature","properties":{"HEIGHT":1.0,"LAYER":"GEO_COTAS","ROTATION":4.9135654764761636,"STRING":"21.05","STYLE":"Standard","TEXTSTRING":"21.05","TEXT_SIZE":1.0,"TEXT_ANGLE":281.52656416327153},"geometry":{"type":"Point","coordinates":[-89.4181951,16.4950394,0.0]}},
{"type":"Feature","properties":{"HEIGHT":1.0,"LAYER":"GEO_COTAS","ROTATION":0.111217271830117,"STRING":"12.77","STYLE":"Standard","TEXTSTRING":"12.77","TEXT_SIZE":1.0,"TEXT_ANGLE":6.3722802848249342},"geometry":{"type":"Point","coordinates":[-89.4182859,16.4951352,0.0]}},
{"type":"Feature","properties":{"HEIGHT":1.0,"LAYER":"GEO_COTAS","ROTATION":6.2465151380773456,"STRING":"14.16","STYLE":"Standard","TEXTSTRING":"14.16","TEXT_SIZE":1.0,"TEXT_ANGLE":357.89895407641058},"geometry":{"type":"Point","coordinates":[-89.4183862,16.4949412,0.0]}},
{"type":"Feature","properties":{"HEIGHT":1.0,"LAYER":"GEO_COTAS","ROTATION":4.8583217069256204,"STRING":"18.89","STYLE":"Standard","TEXTSTRING":"18.89","TEXT_SIZE":1.0,"TEXT_ANGLE":278.36132932363205},"geometry":{"type":"Point","coordinates":[-89.4183207,16.4950354,0.0]}},
{"type":"Feature","properties":{"HEIGHT":1.0,"LAYER":"GEO_COTAS","ROTATION":0.111217271765732,"STRING":"12.77","STYLE":"Standard","TEXTSTRING":"12.77","TEXT_SIZE":1.0,"TEXT_ANGLE":6.3722802811359163},"geometry":{"type":"Point","coordinates":[-89.4184049,16.4951231,0.0]}},
{"type":"Feature","properties":{"HEIGHT":1.0,"LAYER":"GEO_COTAS","ROTATION":0.111217271830117,"STRING":"12.77","STYLE":"Standard","TEXTSTRING":"12.77","TEXT_SIZE":1.0,"TEXT_ANGLE":6.3722802848249342},"geometry":{"type":"Point","coordinates":[-89.4185238,16.4951109,0.0]}},
{"type":"Feature","properties":{"HEIGHT":1.0,"LAYER":"GEO_COTAS","ROTATION":1.5568284224576681,"STRING":"14.82","STYLE":"Standard","TEXTSTRING":"14.82","TEXT_SIZE":1.0,"TEXT_ANGLE":89.19969803283432},"geometry":{"type":"Point","coordinates":[-89.4185947,16.4950273,0.0]}},
{"type":"Feature","properties":{"HEIGHT":1.0,"LAYER":"GEO_COTAS","ROTATION":6.2465151380351021,"STRING":"14.2","STYLE":"Standard","TEXTSTRING":"14.2","TEXT_SIZE":1.0,"TEXT_ANGLE":357.89895407399018},"geometry":{"type":"Point","coordinates":[-89.4185188,16.4949466,0.0]}},
{"type":"Feature","properties":{"HEIGHT":1.0,"LAYER":"GEO_COTAS","ROTATION":4.78909037202998,"STRING":"16.8","STYLE":"Standard","TEXTSTRING":"16.8","TEXT_SIZE":1.0,"TEXT_ANGLE":274.39466602405508},"geometry":{"type":"Point","coordinates":[-89.4184464,16.4950312,0.0]}},
{"type":"Feature","properties":{"HEIGHT":1.0,"LAYER":"GEO_COTAS","ROTATION":0.111217271830117,"STRING":"12.77","STYLE":"Standard","TEXTSTRING":"12.77","TEXT_SIZE":1.0,"TEXT_ANGLE":6.3722802848249236},"geometry":{"type":"Point","coordinates":[-89.4180457,16.4951381,0.0]}},
{"type":"Feature","properties":{"HEIGHT":1.0,"LAYER":"GEO_COTAS","ROTATION":4.9908790654041217,"STRING":"27.81","STYLE":"Standard","TEXTSTRING":"27.81","TEXT_SIZE":1.0,"TEXT_ANGLE":285.9563065078529},"geometry":{"type":"Point","coordinates":[-89.4180117,16.4952789,0.0]}},
{"type":"Feature","properties":{"HEIGHT":1.0,"LAYER":"GEO_COTAS","ROTATION":0.360014036155478,"STRING":"10.5","STYLE":"Standard","TEXTSTRING":"10.5","TEXT_SIZE":1.0,"TEXT_ANGLE":20.627284837179094},"geometry":{"type":"Point","coordinates":[-89.4181077,16.4953906,0.0]}},
{"type":"Feature","properties":{"HEIGHT":1.0,"LAYER":"GEO_COTAS","ROTATION":0.31491955207181899,"STRING":"1.08","STYLE":"Standard","TEXTSTRING":"1.08","TEXT_SIZE":1.0,"TEXT_ANGLE":18.043561219865591},"geometry":{"type":"Point","coordinates":[-89.4181582,16.4953728,0.0]}},
{"type":"Feature","properties":{"HEIGHT":1.0,"LAYER":"GEO_COTAS","ROTATION":4.9486621050330841,"STRING":"24.81","STYLE":"Standard","TEXTSTRING":"24.81","TEXT_SIZE":1.0,"TEXT_ANGLE":283.53745285472138},"geometry":{"type":"Point","coordinates":[-89.4181439,16.4952494,0.0]}},
{"type":"Feature","properties":{"HEIGHT":1.0,"LAYER":"GEO_COTAS","ROTATION":6.2465151380092081,"STRING":"14.16","STYLE":"Standard","TEXTSTRING":"14.16","TEXT_SIZE":1.0,"TEXT_ANGLE":357.89895407250651},"geometry":{"type":"Point","coordinates":[-89.4178561,16.4949197,0.0]}},
{"type":"Feature","properties":{"HEIGHT":1.0,"LAYER":"GEO_COTAS","ROTATION":5.0249421498327882,"STRING":"27.79","STYLE":"Standard","TEXTSTRING":"27.79","TEXT_SIZE":1.0,"TEXT_ANGLE":287.90797748281324},"geometry":{"type":"Point","coordinates":[-89.417818,16.4950508,0.0]}},
{"type":"Feature","properties":{"HEIGHT":1.0,"LAYER":"GEO_COTAS","ROTATION":0.111217271775762,"STRING":"12.81","STYLE":"Standard","TEXTSTRING":"12.81","TEXT_SIZE":1.0,"TEXT_ANGLE":6.3722802817105917},"geometry":{"type":"Point","coordinates":[-89.4179289,16.4951718,0.0]}},
{"type":"Feature","properties":{"HEIGHT":1.0,"LAYER":"GEO_COTAS","ROTATION":4.995418388477054,"STRING":"25.51","STYLE":"Standard","TEXTSTRING":"25.51","TEXT_SIZE":1.0,"TEXT_ANGLE":286.21639056177833},"geometry":{"type":"Point","coordinates":[-89.4179655,16.4950411,0.0]}}
]
}
