{
"type": "FeatureCollection",
"name": "lotes_textos",
"features": [
{"type":"Feature","properties":{"HEIGHT":0.8,"LAYER":"GEO_LOTES_TXT","ROTATION":0.0,"STRING":"LOTE NO. 7\\n221.94m","STYLE":"Standard","TEXTSTRING":"LOTE NO. 7\n221.94m{\\fRomanS|b0|i0|c0|p0;\\U+00b2}","TEXT_SIZE":0.8,"TEXT_ANGLE":0.0},"geometry":{"type":"Point","coordinates":[-89.4185239,16.4951815,0.0]}},
{"type":"Feature","properties":{"HEIGHT":0.8,"LAYER":"GEO_LOTES_TXT","ROTATION":0.0,"STRING":"LOTE NO. 8\\n237.15m","STYLE":"Standard","TEXTSTRING":"LOTE NO. 8\n237.15m{\\fRomanS|b0|i0|c0|p0;\\U+00b2}","TEXT_SIZE":0.8,"TEXT_ANGLE":0.0},"geometry":{"type":"Point","coordinates":[-89.4184118,16.4952022,0.0]}},
{"type":"Feature","properties":{"HEIGHT":0.8,"LAYER":"GEO_LOTES_TXT","ROTATION":0.0,"STRING":"LOTE NO. 9\\n256.04m","STYLE":"Standard","TEXTSTRING":"LOTE NO. 9\n256.04m{\\fRomanS|b0|i0|c0|p0;\\U+00b2}","TEXT_SIZE":0.8,"TEXT_ANGLE":0.0},"geometry":{"type":"Point","coordinates":[-89.4183002,16.4952225,0.0]}},
{"type":"Feature","properties":{"HEIGHT":0.8,"LAYER":"GEO_LOTES_TXT","ROTATION":0.0,"STRING":"LOTE NO. 10\\n285.43m","STYLE":"Standard","TEXTSTRING":"LOTE NO. 10\n285.43m{\\fRomanS|b0|i0|c0|p0;\\U+00b2}","TEXT_SIZE":0.8,"TEXT_ANGLE":0.0},"geometry":{"type":"Point","coordinates":[-89.4181894,16.4952456,0.0]}},
{"type":"Feature","properties":{"HEIGHT":0.8,"LAYER":"GEO_LOTES_TXT","ROTATION":0.0,"STRING":"LOTE NO. 12\\n354.98m","STYLE":"Standard","TEXTSTRING":"LOTE NO. 12\n354.98m{\\fRomanS|b0|i0|c0|p0;\\U+00b2}","TEXT_SIZE":0.8,"TEXT_ANGLE":0.0},"geometry":{"type":"Point","coordinates":[-89.417968,16.4952907,0.0]}},
{"type":"Feature","properties":{"HEIGHT":0.8,"LAYER":"GEO_LOTES_TXT","ROTATION":0.0,"STRING":"LOTE NO. 2\\n318.66m","STYLE":"Standard","TEXTSTRING":"LOTE NO. 2\n318.66m{\\fRomanS|b0|i0|c0|p0;\\U+00b2}","TEXT_SIZE":0.8,"TEXT_ANGLE":0.0},"geometry":{"type":"Point","coordinates":[-89.4180175,16.4950418,0.0]}},
{"type":"Feature","properties":{"HEIGHT":0.8,"LAYER":"GEO_LOTES_TXT","ROTATION":0.0,"STRING":"LOTE NO. 3\\n292.02m","STYLE":"Standard","TEXTSTRING":"LOTE NO. 3\n292.02m{\\fRomanS|b0|i0|c0|p0;\\U+00b2}","TEXT_SIZE":0.8,"TEXT_ANGLE":0.0},"geometry":{"type":"Point","coordinates":[-89.4181432,16.4950383,0.0]}},
{"type":"Feature","properties":{"HEIGHT":0.8,"LAYER":"GEO_LOTES_TXT","ROTATION":0.0,"STRING":"LOTE NO. 4\\n265.37m","STYLE":"Standard","TEXTSTRING":"LOTE NO. 4\n265.37m{\\fRomanS|b0|i0|c0|p0;\\U+00b2}","TEXT_SIZE":0.8,"TEXT_ANGLE":0.0},"geometry":{"type":"Point","coordinates":[-89.4182695,16.495038,0.0]}},
{"type":"Feature","properties":{"HEIGHT":0.8,"LAYER":"GEO_LOTES_TXT","ROTATION":0.0,"STRING":"LOTE NO. 5\\n238.73m","STYLE":"Standard","TEXTSTRING":"LOTE NO. 5\n238.73m{\\fRomanS|b0|i0|c0|p0;\\U+00b2}","TEXT_SIZE":0.8,"TEXT_ANGLE":0.0},"geometry":{"type":"Point","coordinates":[-89.4183949,16.4950336,0.0]}},
{"type":"Feature","properties":{"HEIGHT":0.8,"LAYER":"GEO_LOTES_TXT","ROTATION":0.0,"STRING":"LOTE NO. 6\\n212.34m","STYLE":"Standard","TEXTSTRING":"LOTE NO. 6\n212.34m{\\fRomanS|b0|i0|c0|p0;\\U+00b2}","TEXT_SIZE":0.8,"TEXT_ANGLE":0.0},"geometry":{"type":"Point","coordinates":[-89.4185205,16.4950284,0.0]}},
{"type":"Feature","properties":{"HEIGHT":0.8,"LAYER":"GEO_LOTES_TXT","ROTATION":0.0,"STRING":"LOTE NO. 11\\n317.45m","STYLE":"Standard","TEXTSTRING":"LOTE NO. 11\n317.45m{\\fRomanS|b0|i0|c0|p0;\\U+00b2}","TEXT_SIZE":0.8,"TEXT_ANGLE":0.0},"geometry":{"type":"Point","coordinates":[-89.4180779,16.4952644,0.0]}},
{"type":"Feature","properties":{"HEIGHT":0.8,"LAYER":"GEO_LOTES_TXT","ROTATION":0.0,"STRING":"LOTE NO. 1\\n345.86m","STYLE":"Standard","TEXTSTRING":"LOTE NO. 1\n345.86m{\\fRomanS|b0|i0|c0|p0;\\U+00b2}","TEXT_SIZE":0.8,"TEXT_ANGLE":0.0},"geometry":{"type":"Point","coordinates":[-89.4178917,16.4950453,0.0]}}
]
}
