{
"type": "FeatureCollection",
"name": "lotes_villas_rosario",
"features": [
{"type":"Feature","properties":{"codigo":"VR-Z3-L007","lote_no":"7","area_m2":221.94},"geometry":{"type":"MultiPolygon","coordinates":[[[[-89.4184728,16.4952774,0.0],[-89.4185789,16.4952557,0.0],[-89.4185821,16.495094,0.0],[-89.4184632,16.4951062,0.0],[-89.4184728,16.4952774,0.0]]]]}},
{"type":"Feature","properties":{"codigo":"VR-Z3-L008","lote_no":"8","area_m2":237.15},"geometry":{"type":"MultiPolygon","coordinates":[[[[-89.4184632,16.4951062,0.0],[-89.4183442,16.4951184,0.0],[-89.4183667,16.4952991,0.0],[-89.4184728,16.4952774,0.0],[-89.4184632,16.4951062,0.0]]]]}},
{"type":"Feature","properties":{"codigo":"VR-Z3-L009","lote_no":"9","area_m2":256.04},"geometry":{"type":"MultiPolygon","coordinates":[[[[-89.4183442,16.4951184,0.0],[-89.4182253,16.4951306,0.0],[-89.4182628,16.4953291,0.0],[-89.4183473,16.4953031,0.0],[-89.4183667,16.4952991,0.0],[-89.4183442,16.4951184,0.0]]]]}},
{"type":"Feature","properties":{"codigo":"VR-Z3-L010","lote_no":"10","area_m2":285.43},"geometry":{"type":"MultiPolygon","coordinates":[[[[-89.4182253,16.4951306,0.0],[-89.4181063,16.4951427,0.0],[-89.4181595,16.495361,0.0],[-89.4182628,16.4953291,0.0],[-89.4182253,16.4951306,0.0]]]]}},
{"type":"Feature","properties":{"codigo":"VR-Z3-L012","lote_no":"12","area_m2":354.98},"geometry":{"type":"MultiPolygon","coordinates":[[[[-89.4179874,16.4951549,0.0],[-89.4178681,16.4951672,0.0],[-89.4179556,16.4954334,0.0],[-89.4180577,16.4953969,0.0],[-89.4179874,16.4951549,0.0]]]]}},
{"type":"Feature","properties":{"codigo":"VR-Z3-L002","lote_no":"2","area_m2":318.66},"geometry":{"type":"MultiPolygon","coordinates":[[[[-89.4180544,16.4949386,0.0],[-89.4179219,16.4949332,0.0],[-89.4179874,16.4951549,0.0],[-89.4181063,16.4951427,0.0],[-89.4180544,16.4949386,0.0]]]]}},
{"type":"Feature","properties":{"codigo":"VR-Z3-L003","lote_no":"3","area_m2":292.02},"geometry":{"type":"MultiPolygon","coordinates":[[[[-89.4181869,16.494944,0.0],[-89.4180544,16.4949386,0.0],[-89.4181063,16.4951427,0.0],[-89.4182253,16.4951306,0.0],[-89.4181869,16.494944,0.0]]]]}},
{"type":"Feature","properties":{"codigo":"VR-Z3-L004","lote_no":"4","area_m2":265.37},"geometry":{"type":"MultiPolygon","coordinates":[[[[-89.4183194,16.4949493,0.0],[-89.4181869,16.494944,0.0],[-89.4182253,16.4951306,0.0],[-89.4183442,16.4951184,0.0],[-89.4183194,16.4949493,0.0]]]]}},
{"type":"Feature","properties":{"codigo":"VR-Z3-L005","lote_no":"5","area_m2":238.73},"geometry":{"type":"MultiPolygon","coordinates":[[[[-89.418452,16.4949547,0.0],[-89.4183194,16.4949493,0.0],[-89.4183442,16.4951184,0.0],[-89.4184632,16.4951062,0.0],[-89.418452,16.4949547,0.0]]]]}},
{"type":"Feature","properties":{"codigo":"VR-Z3-L006","lote_no":"6","area_m2":212.34},"geometry":{"type":"MultiPolygon","coordinates":[[[[-89.4184632,16.4951062,0.0],[-89.4185821,16.495094,0.0],[-89.4185848,16.4949601,0.0],[-89.418452,16.4949547,0.0],[-89.4184632,16.4951062,0.0]]]]}},
{"type":"Feature","properties":{"codigo":"VR-Z3-L011","lote_no":"11","area_m2":317.45},"geometry":{"type":"MultiPolygon","coordinates":[[[[-89.4181063,16.4951427,0.0],[-89.4179874,16.4951549,0.0],[-89.4180577,16.4953969,0.0],[-89.4181499,16.495364,0.0],[-89.4181595,16.495361,0.0],[-89.4181063,16.4951427,0.0]]]]}},
{"type":"Feature","properties":{"codigo":"VR-Z3-L001","lote_no":"1","area_m2":345.86},"geometry":{"type":"MultiPolygon","coordinates":[[[[-89.4179219,16.4949332,0.0],[-89.4177894,16.4949278,0.0],[-89.4178681,16.4951672,0.0],[-89.4179874,16.4951549,0.0],[-89.4179219,16.4949332,0.0]]]]}}
]
}
